STARLINK-35319          
1 65743U 25216K   26047.49677828  .00036604  00000+0  12406-2 0  9994
2 65743  53.1580  70.9857 0001746 148.8892 211.2213 15.30233071 23353
STARLINK-35173          
1 65744U 25216L   26048.03302898  .00023615  00000+0  80675-3 0  9990
2 65744  53.1595  68.6498 0001480  83.6058 276.5111 15.30206081 23431
STARLINK-34808          
1 65745U 25216M   26048.07829101  .00028926  00000+0  98470-3 0  9998
2 65745  53.1580  68.2186 0001391  84.8611 275.2549 15.30209021 23365
STARLINK-34704          
1 65746U 25216N   26048.06468350  .00028407  00000+0  96719-3 0  9991
2 65746  53.1587  68.8430 0001527  85.1151 275.0024 15.30213133 23371
STARLINK-35214          
1 65747U 25216P   26048.05096817  .00026627  00000+0  90769-3 0  9997
2 65747  53.1595  68.7588 0001665  69.8130 290.3050 15.30207995 23382
STARLINK-35265          
1 65748U 25216Q   26048.05624175  .00028878  00000+0  98296-3 0  9995
2 65748  53.1594  68.7926 0001544  87.3067 272.8111 15.30212711 22304
STARLINK-35288          
1 65749U 25216R   26048.04885582  .00024125  00000+0  82377-3 0  9990
2 65749  53.1602  68.7467 0001468 101.8024 258.3141 15.30209424 23350
STARLINK-35165          
1 65750U 25216S   26047.38304262  .00014027  00000+0  48502-3 0  9991
2 65750  53.1595  71.7005 0001075  99.6407 260.4715 15.30186156 23254
STARLINK-35260          
1 65751U 25216T   26047.37671129  .00023702  00000+0  80980-3 0  9996
2 65751  53.1586  71.6618 0001409 100.9912 259.1247 15.30200363 23287
STARLINK-34893          
1 65752U 25216U   26047.47474145  .00029144  00000+0  99213-3 0  9992
2 65752  53.1586  71.5690 0001204  71.7386 288.3746 15.30204078 23263
STARLINK-34894          
1 65753U 25216V   26048.04252649  .00028650  00000+0  97546-3 0  9998
2 65753  53.1598  68.7083 0001797  80.3040 279.8163 15.30208276 23353
STARLINK-35287          
1 65754U 25216W   26048.08145594  .00028995  00000+0  98671-3 0  9995
2 65754  53.1577  68.2373 0001427  99.2171 260.8991 15.30218284 23351
STARLINK-35294          
1 65755U 25216X   26047.43569652  .00022578  00000+0  77273-3 0  9995
2 65755  53.1584  71.3205 0001423  76.1185 283.9974 15.30173830 23291
STARLINK-35275          
1 65756U 25216Y   26048.06151628  .00025042  00000+0  85447-3 0  9997
2 65756  53.1589  68.8210 0001435  89.5640 270.5525 15.30211539 23384
STARLINK-35211          
1 65757U 25216Z   26048.11944573  .00027143  00000+0  92479-3 0  9990
2 65757  53.1599  68.4711 0001441  79.2366 280.8797 15.30214900 23397
STARLINK-35313          
1 65758U 25216AA  26048.04779873  .00028238  00000+0  96144-3 0  9991
2 65758  53.1602  68.7343 0001467  94.3010 265.8159 15.30215615 23343
