[{"OBJECT_NAME":"STARLINK-35319","OBJECT_ID":"2025-216K","EPOCH":"2026-02-16T11:55:21.643392","MEAN_MOTION":15.30233071,"ECCENTRICITY":0.00017463,"INCLINATION":53.158,"RA_OF_ASC_NODE":70.9857,"ARG_OF_PERICENTER":148.8892,"MEAN_ANOMALY":211.2213,"EPHEMERIS_TYPE":0,"CLASSIFICATION_TYPE":"U","NORAD_CAT_ID":65743,"ELEMENT_SET_NO":999,"REV_AT_EPOCH":2335,"BSTAR":0.0012406469,"MEAN_MOTION_DOT":0.00036604,"MEAN_MOTION_DDOT":0},{"OBJECT_NAME":"STARLINK-35173","OBJECT_ID":"2025-216L","EPOCH":"2026-02-17T00:47:33.703872","MEAN_MOTION":15.30206081,"ECCENTRICITY":0.000148,"INCLINATION":53.1595,"RA_OF_ASC_NODE":68.6498,"ARG_OF_PERICENTER":83.6058,"MEAN_ANOMALY":276.5111,"EPHEMERIS_TYPE":0,"CLASSIFICATION_TYPE":"U","NORAD_CAT_ID":65744,"ELEMENT_SET_NO":999,"REV_AT_EPOCH":2343,"BSTAR":0.00080675,"MEAN_MOTION_DOT":0.00023615,"MEAN_MOTION_DDOT":0},{"OBJECT_NAME":"STARLINK-34808","OBJECT_ID":"2025-216M","EPOCH":"2026-02-17T01:52:44.343264","MEAN_MOTION":15.30209021,"ECCENTRICITY":0.0001391,"INCLINATION":53.158,"RA_OF_ASC_NODE":68.2186,"ARG_OF_PERICENTER":84.8611,"MEAN_ANOMALY":275.2549,"EPHEMERIS_TYPE":0,"CLASSIFICATION_TYPE":"U","NORAD_CAT_ID":65745,"ELEMENT_SET_NO":999,"REV_AT_EPOCH":2336,"BSTAR":0.0009847,"MEAN_MOTION_DOT":0.00028926,"MEAN_MOTION_DDOT":0},{"OBJECT_NAME":"STARLINK-34704","OBJECT_ID":"2025-216N","EPOCH":"2026-02-17T01:33:08.654400","MEAN_MOTION":15.30213133,"ECCENTRICITY":0.0001527,"INCLINATION":53.1587,"RA_OF_ASC_NODE":68.843,"ARG_OF_PERICENTER":85.1151,"MEAN_ANOMALY":275.0024,"EPHEMERIS_TYPE":0,"CLASSIFICATION_TYPE":"U","NORAD_CAT_ID":65746,"ELEMENT_SET_NO":999,"REV_AT_EPOCH":2337,"BSTAR":0.00096719,"MEAN_MOTION_DOT":0.00028407,"MEAN_MOTION_DDOT":0},{"OBJECT_NAME":"STARLINK-35214","OBJECT_ID":"2025-216P","EPOCH":"2026-02-17T01:13:23.649888","MEAN_MOTION":15.30207995,"ECCENTRICITY":0.0001665,"INCLINATION":53.1595,"RA_OF_ASC_NODE":68.7588,"ARG_OF_PERICENTER":69.813,"MEAN_ANOMALY":290.305,"EPHEMERIS_TYPE":0,"CLASSIFICATION_TYPE":"U","NORAD_CAT_ID":65747,"ELEMENT_SET_NO":999,"REV_AT_EPOCH":2338,"BSTAR":0.00090769,"MEAN_MOTION_DOT":0.00026627,"MEAN_MOTION_DDOT":0},{"OBJECT_NAME":"STARLINK-35265","OBJECT_ID":"2025-216Q","EPOCH":"2026-02-17T01:20:59.287200","MEAN_MOTION":15.30212711,"ECCENTRICITY":0.0001544,"INCLINATION":53.1594,"RA_OF_ASC_NODE":68.7926,"ARG_OF_PERICENTER":87.3067,"MEAN_ANOMALY":272.8111,"EPHEMERIS_TYPE":0,"CLASSIFICATION_TYPE":"U","NORAD_CAT_ID":65748,"ELEMENT_SET_NO":999,"REV_AT_EPOCH":2230,"BSTAR":0.00098296,"MEAN_MOTION_DOT":0.00028878,"MEAN_MOTION_DDOT":0},{"OBJECT_NAME":"STARLINK-35288","OBJECT_ID":"2025-216R","EPOCH":"2026-02-17T01:10:21.142848","MEAN_MOTION":15.30209424,"ECCENTRICITY":0.0001468,"INCLINATION":53.1602,"RA_OF_ASC_NODE":68.7467,"ARG_OF_PERICENTER":101.8024,"MEAN_ANOMALY":258.3141,"EPHEMERIS_TYPE":0,"CLASSIFICATION_TYPE":"U","NORAD_CAT_ID":65749,"ELEMENT_SET_NO":999,"REV_AT_EPOCH":2335,"BSTAR":0.00082377,"MEAN_MOTION_DOT":0.00024125,"MEAN_MOTION_DDOT":0},{"OBJECT_NAME":"STARLINK-35165","OBJECT_ID":"2025-216S","EPOCH":"2026-02-16T09:11:34.882368","MEAN_MOTION":15.30186156,"ECCENTRICITY":0.00010758,"INCLINATION":53.1595,"RA_OF_ASC_NODE":71.7005,"ARG_OF_PERICENTER":99.6407,"MEAN_ANOMALY":260.4715,"EPHEMERIS_TYPE":0,"CLASSIFICATION_TYPE":"U","NORAD_CAT_ID":65750,"ELEMENT_SET_NO":999,"REV_AT_EPOCH":2325,"BSTAR":0.0004850233,"MEAN_MOTION_DOT":0.00014027,"MEAN_MOTION_DDOT":0},{"OBJECT_NAME":"STARLINK-35260","OBJECT_ID":"2025-216T","EPOCH":"2026-02-16T09:02:27.855456","MEAN_MOTION":15.30200363,"ECCENTRICITY":0.00014096,"INCLINATION":53.1586,"RA_OF_ASC_NODE":71.6618,"ARG_OF_PERICENTER":100.9912,"MEAN_ANOMALY":259.1247,"EPHEMERIS_TYPE":0,"CLASSIFICATION_TYPE":"U","NORAD_CAT_ID":65751,"ELEMENT_SET_NO":999,"REV_AT_EPOCH":2328,"BSTAR":0.00080980261,"MEAN_MOTION_DOT":0.00023702,"MEAN_MOTION_DDOT":0},{"OBJECT_NAME":"STARLINK-34893","OBJECT_ID":"2025-216U","EPOCH":"2026-02-16T11:23:37.661280","MEAN_MOTION":15.30204078,"ECCENTRICITY":0.0001204,"INCLINATION":53.1586,"RA_OF_ASC_NODE":71.569,"ARG_OF_PERICENTER":71.7386,"MEAN_ANOMALY":288.3746,"EPHEMERIS_TYPE":0,"CLASSIFICATION_TYPE":"U","NORAD_CAT_ID":65752,"ELEMENT_SET_NO":999,"REV_AT_EPOCH":2326,"BSTAR":0.00099213056,"MEAN_MOTION_DOT":0.00029144,"MEAN_MOTION_DDOT":0},{"OBJECT_NAME":"STARLINK-34894","OBJECT_ID":"2025-216V","EPOCH":"2026-02-17T01:01:14.288736","MEAN_MOTION":15.30208276,"ECCENTRICITY":0.0001797,"INCLINATION":53.1598,"RA_OF_ASC_NODE":68.7083,"ARG_OF_PERICENTER":80.304,"MEAN_ANOMALY":279.8163,"EPHEMERIS_TYPE":0,"CLASSIFICATION_TYPE":"U","NORAD_CAT_ID":65753,"ELEMENT_SET_NO":999,"REV_AT_EPOCH":2335,"BSTAR":0.00097546,"MEAN_MOTION_DOT":0.0002865,"MEAN_MOTION_DDOT":0},{"OBJECT_NAME":"STARLINK-35287","OBJECT_ID":"2025-216W","EPOCH":"2026-02-17T01:57:17.793216","MEAN_MOTION":15.30218284,"ECCENTRICITY":0.0001427,"INCLINATION":53.1577,"RA_OF_ASC_NODE":68.2373,"ARG_OF_PERICENTER":99.2171,"MEAN_ANOMALY":260.8991,"EPHEMERIS_TYPE":0,"CLASSIFICATION_TYPE":"U","NORAD_CAT_ID":65754,"ELEMENT_SET_NO":999,"REV_AT_EPOCH":2335,"BSTAR":0.00098671,"MEAN_MOTION_DOT":0.00028995,"MEAN_MOTION_DDOT":0},{"OBJECT_NAME":"STARLINK-35294","OBJECT_ID":"2025-216X","EPOCH":"2026-02-16T10:27:24.179328","MEAN_MOTION":15.3017383,"ECCENTRICITY":0.00014239,"INCLINATION":53.1584,"RA_OF_ASC_NODE":71.3205,"ARG_OF_PERICENTER":76.1185,"MEAN_ANOMALY":283.9974,"EPHEMERIS_TYPE":0,"CLASSIFICATION_TYPE":"U","NORAD_CAT_ID":65755,"ELEMENT_SET_NO":999,"REV_AT_EPOCH":2329,"BSTAR":0.00077273058,"MEAN_MOTION_DOT":0.00022578,"MEAN_MOTION_DDOT":0},{"OBJECT_NAME":"STARLINK-35275","OBJECT_ID":"2025-216Y","EPOCH":"2026-02-17T01:28:35.006592","MEAN_MOTION":15.30211539,"ECCENTRICITY":0.0001435,"INCLINATION":53.1589,"RA_OF_ASC_NODE":68.821,"ARG_OF_PERICENTER":89.564,"MEAN_ANOMALY":270.5525,"EPHEMERIS_TYPE":0,"CLASSIFICATION_TYPE":"U","NORAD_CAT_ID":65756,"ELEMENT_SET_NO":999,"REV_AT_EPOCH":2338,"BSTAR":0.00085447,"MEAN_MOTION_DOT":0.00025042,"MEAN_MOTION_DDOT":0},{"OBJECT_NAME":"STARLINK-35211","OBJECT_ID":"2025-216Z","EPOCH":"2026-02-17T02:52:00.111072","MEAN_MOTION":15.302149,"ECCENTRICITY":0.0001441,"INCLINATION":53.1599,"RA_OF_ASC_NODE":68.4711,"ARG_OF_PERICENTER":79.2366,"MEAN_ANOMALY":280.8797,"EPHEMERIS_TYPE":0,"CLASSIFICATION_TYPE":"U","NORAD_CAT_ID":65757,"ELEMENT_SET_NO":999,"REV_AT_EPOCH":2339,"BSTAR":0.00092479,"MEAN_MOTION_DOT":0.00027143,"MEAN_MOTION_DDOT":0},{"OBJECT_NAME":"STARLINK-35313","OBJECT_ID":"2025-216AA","EPOCH":"2026-02-17T01:08:49.810272","MEAN_MOTION":15.30215615,"ECCENTRICITY":0.0001467,"INCLINATION":53.1602,"RA_OF_ASC_NODE":68.7343,"ARG_OF_PERICENTER":94.301,"MEAN_ANOMALY":265.8159,"EPHEMERIS_TYPE":0,"CLASSIFICATION_TYPE":"U","NORAD_CAT_ID":65758,"ELEMENT_SET_NO":999,"REV_AT_EPOCH":2334,"BSTAR":0.00096144,"MEAN_MOTION_DOT":0.00028238,"MEAN_MOTION_DDOT":0}]
